NORAD_CAT_ID,OBJECT_NAME,OBJECT_TYPE,EPOCH,MEAN_MOTION,ECCENTRICITY,INCLINATION,RA_OF_ASC_NODE,ARG_OF_PERICENTER,MEAN_ANOMALY,BSTAR,MEAN_MOTION_DOT,MEAN_MOTION_DDOT,TLE_LINE0,TLE_LINE1,TLE_LINE2,SEMIMAJOR_AXIS,PERIOD,APOGEE,PERIGEE,DECAYED
52119.0,STARLINK-3558,PAYLOAD,2022-07-01 14:00:01,15.08847009,0.0001726,53.2175,6.4982,63.7367,238.3447,-0.00049015,-8.082e-05,0.0,0 STARLINK-3558,1 52119U 22029AH  22182.58334491 -.00008082  00000-0 -49015-3 0  9997,2 52119  53.2175   6.4982 0001726  63.7367 238.3447 15.08847009  1307,6917.859,95.437,540.918,538.53,0.0
52119.0,STARLINK-3558,PAYLOAD,2022-07-01 22:00:00,15.08819695,0.0001865,53.2174,5.0034,56.9108,256.7745,0.0024592,0.00039046,0.0,0 STARLINK-3558,1 52119U 22029AH  22182.91667824  .00039046  00000-0  24592-2 0  9997,2 52119  53.2174   5.0034 0001865  56.9108 256.7745 15.08819695  1305,6917.941999999999,95.439,541.0980000000002,538.5169999999998,0.0
52119.0,STARLINK-3558,PAYLOAD,2022-07-02 14:00:01,15.08862485,0.0001702,53.2178,2.0091,64.4034,272.4667,-0.00085928,-0.00013946,0.0,0 STARLINK-3558,1 52119U 22029AH  22183.58334491 -.00013946  00000-0 -85928-3 0  9996,2 52119  53.2178   2.0091 0001702  64.4034 272.4667 15.08862485 17581,6917.812,95.436,540.854,538.499,0.0
52119.0,STARLINK-3558,PAYLOAD,2022-07-02 22:00:00,15.08852011,0.0001768,53.2175,0.5142,56.5867,291.9118,0.00026979,4.01e-05,0.0,0 STARLINK-3558,1 52119U 22029AH  22183.91667824  .00004010  00000-0  26979-3 0  9993,2 52119  53.2175   0.5142 0001768  56.5867 291.9118 15.08852011  1300,6917.844,95.437,540.932,538.486,0.0
52119.0,STARLINK-3558,PAYLOAD,2022-07-03 14:00:01,15.08871981,0.0001518,53.2177,357.5202,62.3447,309.3561,-0.0037973,-0.00060269,0.0,0 STARLINK-3558,1 52119U 22029AH  22184.58334491 -.00060269  00000-0 -37973-2 0  9993,2 52119  53.2177 357.5202 0001518  62.3447 309.3561 15.08871981  1309,6917.783,95.436,540.698,538.5980000000002,0.0
52119.0,STARLINK-3558,PAYLOAD,2022-07-03 22:00:00,15.08797642,0.0001574,53.2173,356.0253,54.4319,328.8811,0.0027455,0.00043627,0.0,0 STARLINK-3558,1 52119U 22029AH  22184.91667824  .00043627  00000-0  27455-2 0  9990,2 52119  53.2173 356.0253 0001574  54.4319 328.8811 15.08797642  1302,6918.01,95.44,540.964,538.786,0.0
52119.0,STARLINK-3558,PAYLOAD,2022-07-04 14:00:01,15.08843891,0.000147,53.2173,353.0316,62.6064,343.8382,-0.0016259,-0.00026074,0.0,0 STARLINK-3558,1 52119U 22029AH  22185.58334491 -.00026074  00000-0 -16259-2 0  9994,2 52119  53.2173 353.0316 0001470  62.6064 343.8382 15.08843891 17880,6917.868,95.437,540.75,538.717,0.0
52119.0,STARLINK-3558,PAYLOAD,2022-07-04 22:00:00,15.08813077,0.0001561,53.2169,351.5365,54.8378,3.2051,0.0029488,0.0004692,0.0,0 STARLINK-3558,1 52119U 22029AH  22185.91667824  .00046920  00000-0  29488-2 0  9998,2 52119  53.2169 351.5365 0001561  54.8378   3.2051 15.08813077  1307,6917.9630000000025,95.439,540.908,538.748,0.0
52119.0,STARLINK-3558,PAYLOAD,2022-07-05 06:00:00,15.08826401,0.0001419999999999,53.2168,350.0384,61.9198,7.7134,0.0015960999999999,0.00025196,0.0,0 STARLINK-3558,1 52119U 22029AH  22186.25001157  .00025196  00000-0  15961-2 0  9990,2 52119  53.2168 350.0384 0001420  61.9198   7.7134 15.08826401 17981,6917.922,95.438,540.769,538.805,0.0
52119.0,STARLINK-3558,PAYLOAD,2022-07-05 14:00:01,15.088676500000002,0.0001477,53.2168,348.5428,61.6916,19.5239,-0.00262,-0.00041775,0.0,0 STARLINK-3558,1 52119U 22029AH  22186.58334491 -.00041775  00000-0 -26200-2 0  9997,2 52119  53.2168 348.5428 0001477  61.6916  19.5239 15.08867650  1306,6917.795999999999,95.436,540.683,538.639,0.0
52119.0,STARLINK-3558,PAYLOAD,2022-07-05 22:00:00,15.08816108,0.0001503,53.2164,347.0475,52.4845,40.349,0.0014383,0.00022662,0.0,0 STARLINK-3558,1 52119U 22029AH  22186.91667824  .00022662  00000-0  14383-2 0  9994,2 52119  53.2164 347.0475 0001503  52.4845  40.3490 15.08816108 18083,6917.953,95.439,540.8580000000002,538.779,0.0
52119.0,STARLINK-3558,PAYLOAD,2022-07-06 14:00:01,15.08847058,0.0001450999999999,53.2166,344.0538,59.0863,56.8952,-0.0016894,-0.00027079,0.0,0 STARLINK-3558,1 52119U 22029AH  22187.58334491 -.00027079  00000-0 -16894-2 0  9997,2 52119  53.2166 344.0538 0001451  59.0863  56.8952 15.08847058 18181,6917.859,95.437,540.7280000000002,538.72,0.0
52119.0,STARLINK-3558,PAYLOAD,2022-07-06 22:00:00,15.08818641,0.000154,53.2163,342.5584,50.9151,76.6623,0.0026467,0.00042061,0.0,0 STARLINK-3558,1 52119U 22029AH  22187.91667824  .00042061  00000-0  26467-2 0  9996,2 52119  53.2163 342.5584 0001540  50.9151  76.6623 15.08818641  1308,6917.946,95.439,540.876,538.745,0.0
52119.0,STARLINK-3558,PAYLOAD,2022-07-07 03:47:47,15.08839408,0.0001468,53.218,341.4721,61.227,298.8869,0.00010075,1.316e-05,0.0,0 STARLINK-3558,1 52119U 22029AH  22188.15818520  .00001316  00000-0  10075-3 0  9991,2 52119  53.2180 341.4721 0001468  61.2270 298.8869 15.08839408 18272,6917.882,95.438,540.763,538.732,0.0
52119.0,STARLINK-3558,PAYLOAD,2022-07-07 14:00:01,15.08869086,0.0001496,53.2167,339.5646,56.8137,93.9457,-0.0026601,-0.00042408,0.0,0 STARLINK-3558,1 52119U 22029AH  22188.58334491 -.00042408  00000-0 -26601-2 0  9998,2 52119  53.2167 339.5646 0001496  56.8137  93.9457 15.08869086  1302,6917.791,95.436,540.691,538.622,0.0
52119.0,STARLINK-3558,PAYLOAD,2022-07-07 22:00:00,15.0882318,0.0001531999999999,53.2166,338.0692,48.1373,114.2399,0.0010878,0.00017059,0.0,0 STARLINK-3558,1 52119U 22029AH  22188.91667824  .00017059  00000-0  10878-2 0  9995,2 52119  53.2166 338.0692 0001532  48.1373 114.2399 15.08823180  1300,6917.932,95.439,540.857,538.737,0.0
52119.0,STARLINK-3558,PAYLOAD,2022-07-08 06:49:20,15.0884621,0.0001469,53.217,336.4169,58.5037,301.6098,0.00025018,3.697e-05,0.0,0 STARLINK-3558,1 52119U 22029AH  22189.28426046  .00003697  00000-0  25018-3 0  9991,2 52119  53.2170 336.4169 0001469  58.5037 301.6098 15.08846210 18447,6917.861,95.437,540.743,538.71,0.0
52119.0,STARLINK-3558,PAYLOAD,2022-07-08 14:00:01,15.08873343,0.0001469,53.217,335.0753,52.1685,133.4138,-0.00056869,-9.336e-05,0.0,0 STARLINK-3558,1 52119U 22029AH  22189.58334491 -.00009336  00000-0 -56869-3 0  9992,2 52119  53.2170 335.0753 0001469  52.1685 133.4138 15.08873343  1300,6917.778,95.435,540.66,538.627,0.0
52119.0,STARLINK-3558,PAYLOAD,2022-07-08 22:00:01,15.08883671,0.0001629,53.2167,333.5794,48.4002,148.8777,-0.0015359,-0.00024678,0.0,0 STARLINK-3558,1 52119U 22029AH  22189.91668981 -.00024678  00000-0 -15359-2 0  9997,2 52119  53.2167 333.5794 0001629  48.4002 148.8777 15.08883671  1307,6917.746999999999,95.435,540.739,538.485,0.0
52119.0,STARLINK-3558,PAYLOAD,2022-07-09 04:00:00,15.08858643,0.0001564999999999,53.2171,332.4557,56.6008,59.3404,-0.0035458,-0.00056307,0.0,0 STARLINK-3558,1 52119U 22029AH  22190.16667824 -.00056307  00000-0 -35458-2 0  9997,2 52119  53.2171 332.4557 0001565  56.6008  59.3404 15.08858643 18574,6917.823,95.436,540.771,538.606,0.0
52119.0,STARLINK-3558,PAYLOAD,2022-07-09 14:00:01,15.08818737,0.0001702,53.2172,330.586,58.3291,162.0916,-0.0043784,-0.00069261,0.0,0 STARLINK-3558,1 52119U 22029AH  22190.58334491 -.00069261  00000-0 -43784-2 0  9998,2 52119  53.2172 330.5860 0001702  58.3291 162.0916 15.08818737  1300,6917.945,95.439,540.988,538.633,0.0
52119.0,STARLINK-3558,PAYLOAD,2022-07-09 20:00:01,15.08752123,0.0001720999999999,53.217,329.4645,52.3207,86.7673,0.0033088,0.00052638,0.0,0 STARLINK-3558,1 52119U 22029AH  22190.83334491  .00052638  00000-0  33088-2 0  9990,2 52119  53.2170 329.4645 0001721  52.3207  86.7673 15.08752123  1306,6918.149,95.443,541.205,538.823,0.0
52119.0,STARLINK-3558,PAYLOAD,2022-07-10 06:00:00,15.08762263,0.0001478,53.217,327.5921,58.5902,184.8988,0.0056323,0.00090308,0.0,0 STARLINK-3558,1 52119U 22029AH  22191.25001157  .00090308  00000-0  56323-2 0  9990,2 52119  53.2170 327.5921 0001478  58.5902 184.8988 15.08762263 18731,6918.118,95.442,541.006,538.961,0.0
52119.0,STARLINK-3558,PAYLOAD,2022-07-10 14:00:01,15.08830788,0.0001539,53.2172,326.0971,54.6093,200.4201,-0.0010579,-0.00017081,0.0,0 STARLINK-3558,1 52119U 22029AH  22191.58334491 -.00017081  00000-0 -10579-2 0  9998,2 52119  53.2172 326.0971 0001539  54.6093 200.4201 15.08830788  1304,6917.909000000002,95.438,540.8380000000002,538.7090000000002,0.0
52119.0,STARLINK-3558,PAYLOAD,2022-07-10 22:00:00,15.08829457,0.000157,53.2167,324.6009,50.5527,216.0493,4.406e-05,4.13e-06,0.0,0 STARLINK-3558,1 52119U 22029AH  22191.91667824  .00000413  00000-0  44060-4 0  9997,2 52119  53.2167 324.6009 0001570  50.5527 216.0493 15.08829457 18840,6917.913000000001,95.438,540.864,538.692,0.0
52119.0,STARLINK-3558,PAYLOAD,2022-07-11 14:00:01,15.08852195,0.0001529,53.2169,321.608,54.6017,235.1826,-0.00093552,-0.00015151,0.0,0 STARLINK-3558,1 52119U 22029AH  22192.58334491 -.00015151  00000-0 -93552-3 0  9998,2 52119  53.2169 321.6080 0001529  54.6017 235.1826 15.08852195  1301,6917.843000000003,95.437,540.766,538.65,0.0
52119.0,STARLINK-3558,PAYLOAD,2022-07-11 22:00:00,15.08865628,0.0001564,53.2164,320.1116,51.4158,249.9694,-0.0013967,-0.00022463,0.0,0 STARLINK-3558,1 52119U 22029AH  22192.91667824 -.00022463  00000-0 -13967-2 0  9999,2 52119  53.2164 320.1116 0001564  51.4158 249.9694 15.08865628  1301,6917.802,95.436,540.749,538.585,0.0
52119.0,STARLINK-3558,PAYLOAD,2022-07-12 14:00:01,15.08856701,0.0001643,53.2167,317.1189,56.4979,268.1161,-0.00042511,-7.049999999999999e-05,0.0,0 STARLINK-3558,1 52119U 22029AH  22193.58334491 -.00007050  00000-0 -42511-3 0  9997,2 52119  53.2167 317.1189 0001643  56.4979 268.1161 15.08856701  1308,6917.829000000002,95.436,540.831,538.558,0.0
52119.0,STARLINK-3558,PAYLOAD,2022-07-12 22:00:00,15.0888283,0.0001607,53.2162,315.6224,52.2237,283.9968,-0.002155,-0.00034461,0.0,0 STARLINK-3558,1 52119U 22029AH  22193.91667824 -.00034461  00000-0 -21550-2 0  9998,2 52119  53.2162 315.6224 0001607  52.2237 283.9968 15.08882830 19140,6917.749,95.435,540.726,538.503,0.0
